IRIDIUM 113             
1 42803U 17039A   26137.54221296  .00000044  00000+0  88115-5 0  9992
2 42803  86.3966 334.9944 0002280  92.4215 267.7242 14.34217834466797
NORSAT 2                
1 42828U 17042D   26137.44791164  .00007669  00000+0  34572-3 0  9994
2 42828  97.4020 311.3949 0010504 153.3961 206.7816 15.21260737483061
TECHNOSAT               
1 42829U 17042E   26137.39623455  .00002397  00000+0  17373-3 0  9999
2 42829  97.4245 296.2367 0017446 195.3769 164.6929 15.04748793482071
FLYING LAPTOP           
1 42831U 17042G   26137.52071677  .00002290  00000+0  18372-3 0  9992
2 42831  97.4545 294.2637 0017799 225.8497 134.1265 15.00928933481855
WNISAT 1R               
1 42835U 17042L   26137.44041505  .00001599  00000+0  12763-3 0  9993
2 42835  97.4801 294.6697 0009883 268.0491  91.9602 15.01609707481897
LEMUR-2-GREENBERG       
1 42837U 17042N   26137.49514602  .00010390  00000+0  35636-3 0  9996
2 42837  97.3805 318.2881 0010422 113.0775 247.1566 15.30304390483691
LEMUR-2-FURIAUS         
1 42840U 17042R   26137.46657410  .00010452  00000+0  37151-3 0  9995
2 42840  97.3759 316.2859 0008173 164.2712 195.8783 15.29156896483510
CORVUS BC2              
1 42846U 17042X   26137.43551051  .00001808  00000+0  12769-3 0  9995
2 42846  97.4038 299.9917 0012218 210.3708 149.6813 15.06082946482432
CORVUS BC1              
1 42847U 17042Y   26137.43361411  .00001700  00000+0  11974-3 0  9993
2 42847  97.4069 300.7838 0011756 185.4973 174.6128 15.06253793482462
VRSS-2                  
1 42954U 17060A   26137.51672595  .00000457  00000+0  65063-4 0  9996
2 42954  97.6537 176.6221 0016474 195.1860 164.8860 14.81139032463918
MOHAMMED VI-A           
1 43005U 17070A   26137.52383447  .00000653  00000+0  99643-4 0  9990
2 43005  97.9571 210.2749 0001562 105.6471 254.4912 14.77095984459453
FENGYUN 3D              
1 43010U 17072A   26137.49074910  .00000096  00000+0  67343-4 0  9999
2 43010  99.0106 111.3616 0002320 113.1919 246.9501 14.19732486440635
NOAA 20 (JPSS-1)        
1 43013U 17073A   26137.48066742  .00000029  00000+0  34490-4 0  9999
2 43013  98.7763  77.2183 0001360  46.5181 313.6108 14.19505514440113
MAKERSAT 0              
1 43016U 17073D   26137.40502618  .00017905  00000+0  49983-3 0  9994
2 43016  97.4671  19.7092 0110901  23.6146 337.0130 15.30727134461755
RADFXSAT (FOX-1B)       
1 43017U 17073E   26137.44353036  .00007624  00000+0  33449-3 0  9994
2 43017  97.4743   5.2970 0153824  74.9703 286.8493 15.12114613460743
JILIN-1 04              
1 43022U 17074A   26137.52199009  .00008934  00000+0  21437-3 0  9997
2 43022  97.4835 246.3424 0002692 317.0260  43.0776 15.41614134469547
JILIN-1 05              
1 43023U 17074B   26137.52011538  .00005803  00000+0  18246-3 0  9994
2 43023  97.4842 243.2768 0004634 353.3547   6.7633 15.33366910469301
JILIN-1 06              
1 43024U 17074C   26137.55483169  .00004267  00000+0  13498-3 0  9998
2 43024  97.4770 240.3562 0006631   1.3943 358.7316 15.33325307469146
IRIDIUM 116             
1 43072U 17083C   26137.51684485  .00000035  00000+0  55630-5 0  9996
2 43072  86.3961 334.8300 0001992  80.7758 279.3663 14.34218723439779
IRIDIUM 130             
1 43073U 17083D   26137.55489720  .00000071  00000+0  18417-4 0  9997
2 43073  86.3967 335.0865 0002224  82.0328 278.1120 14.34218276439725
LKW-2                   
1 43080U 17084A   26137.53931245  .00004159  00000+0  16488-3 0  9994
2 43080  97.1215 178.7732 0002412  43.0668 317.0759 15.25903417467010
SUPERVIEW-1 03          
1 43099U 18002A   26137.47092728  .00010308  00000+0  26592-3 0  9992
2 43099  97.3135 222.3803 0046227 291.8596  67.7736 15.38246689463647
CARTOSAT-2F             
1 43111U 18004A   26137.18610425  .00000255  00000+0  15333-4 0  9999
2 43111  97.4814 197.1190 0001657  46.0784 314.0587 15.19205508462625
LKW-3                   
1 43146U 18006A   26137.54400440  .00007613  00000+0  22950-3 0  9990
2 43146  97.6580 296.9425 0004089  69.3416 290.8265 15.34609475464013
ASNARO-2                
1 43152U 18007A   26136.76833103  .00008248  00000+0  35955-3 0  9991
2 43152  97.3979 144.1843 0001743  93.5281 266.6155 15.22434727462638
JILIN-1 07              
1 43159U 18008E   26137.50820117  .00005461  00000+0  16725-3 0  9991
2 43159  97.1783 158.2652 0009129 156.1777 203.9891 15.34175150460298
JILIN-1 08              
1 43160U 18008F   26137.48967612  .00004939  00000+0  15585-3 0  9994
2 43160  97.1814 157.5934 0006494 165.8697 194.2728 15.33286562460245
LEMUR-2-KADI            
1 43184U 18014E   26137.28851828  .00318143  00000+0  11734-2 0  9992
2 43184  97.4479  66.8806 0004962 111.7111 248.4689 15.87411746456178
S-NET D                 
1 43186U 18014G   26137.31806874  .00003131  00000+0  16473-3 0  9993
2 43186  97.5390  42.3055 0009842 119.3722 240.8495 15.16355640454083
S-NET B                 
1 43187U 18014H   26137.46090203  .00003220  00000+0  16941-3 0  9990
2 43187  97.5393  42.4330 0010549 115.3904 244.8422 15.16326732454105
