OBJECT_NAME,OBJECT_ID,EPOCH,MEAN_MOTION,ECCENTRICITY,INCLINATION,RA_OF_ASC_NODE,ARG_OF_PERICENTER,MEAN_ANOMALY,EPHEMERIS_TYPE,CLASSIFICATION_TYPE,NORAD_CAT_ID,ELEMENT_SET_NO,REV_AT_EPOCH,BSTAR,MEAN_MOTION_DOT,MEAN_MOTION_DDOT
IRIDIUM 113,2017-039A,2026-05-17T13:00:47.199744,14.34217834,.000228,86.3966,334.9944,92.4215,267.7242,0,U,42803,999,46679,.88115E-5,.44E-6,0
NORSAT 2,2017-042D,2026-05-17T10:44:59.565696,15.21260737,.0010504,97.4020,311.3949,153.3961,206.7816,0,U,42828,999,48306,.34572E-3,.7669E-4,0
TECHNOSAT,2017-042E,2026-05-17T09:30:34.665120,15.04748793,.0017446,97.4245,296.2367,195.3769,164.6929,0,U,42829,999,48207,.17373E-3,.2397E-4,0
FLYING LAPTOP,2017-042G,2026-05-17T12:29:49.928928,15.00928933,.0017799,97.4545,294.2637,225.8497,134.1265,0,U,42831,999,48185,.18372E-3,.229E-4,0
WNISAT 1R,2017-042L,2026-05-17T10:34:11.860320,15.01609707,.0009883,97.4801,294.6697,268.0491,91.9602,0,U,42835,999,48189,.12763E-3,.1599E-4,0
LEMUR-2-GREENBERG,2017-042N,2026-05-17T11:53:00.616128,15.30304390,.0010422,97.3805,318.2881,113.0775,247.1566,0,U,42837,999,48369,.35636E-3,.1039E-3,0
LEMUR-2-FURIAUS,2017-042R,2026-05-17T11:11:52.002240,15.29156896,.0008173,97.3759,316.2859,164.2712,195.8783,0,U,42840,999,48351,.37151E-3,.10452E-3,0
CORVUS BC2,2017-042X,2026-05-17T10:27:08.108064,15.06082946,.0012218,97.4038,299.9917,210.3708,149.6813,0,U,42846,999,48243,.12769E-3,.1808E-4,0
CORVUS BC1,2017-042Y,2026-05-17T10:24:24.259104,15.06253793,.0011756,97.4069,300.7838,185.4973,174.6128,0,U,42847,999,48246,.11974E-3,.17E-4,0
VRSS-2,2017-060A,2026-05-17T12:24:05.122080,14.81139032,.0016474,97.6537,176.6221,195.1860,164.8860,0,U,42954,999,46391,.65063E-4,.457E-5,0
MOHAMMED VI-A,2017-070A,2026-05-17T12:34:19.298208,14.77095984,.0001562,97.9571,210.2749,105.6471,254.4912,0,U,43005,999,45945,.99643E-4,.653E-5,0
FENGYUN 3D,2017-072A,2026-05-17T11:46:40.722240,14.19732486,.000232,99.0106,111.3616,113.1919,246.9501,0,U,43010,999,44063,.67343E-4,.96E-6,0
NOAA 20 (JPSS-1),2017-073A,2026-05-17T11:32:09.665088,14.19505514,.000136,98.7763,77.2183,46.5181,313.6108,0,U,43013,999,44011,.3449E-4,.29E-6,0
MAKERSAT 0,2017-073D,2026-05-17T09:43:14.261952,15.30727134,.0110901,97.4671,19.7092,23.6146,337.0130,0,U,43016,999,46175,.49983E-3,.17905E-3,0
RADFXSAT (FOX-1B),2017-073E,2026-05-17T10:38:41.023104,15.12114613,.0153824,97.4743,5.2970,74.9703,286.8493,0,U,43017,999,46074,.33449E-3,.7624E-4,0
JILIN-1 04,2017-074A,2026-05-17T12:31:39.943776,15.41614134,.0002692,97.4835,246.3424,317.0260,43.0776,0,U,43022,999,46954,.21437E-3,.8934E-4,0
JILIN-1 05,2017-074B,2026-05-17T12:28:57.968832,15.33366910,.0004634,97.4842,243.2768,353.3547,6.7633,0,U,43023,999,46930,.18246E-3,.5803E-4,0
JILIN-1 06,2017-074C,2026-05-17T13:18:57.458016,15.33325307,.0006631,97.4770,240.3562,1.3943,358.7316,0,U,43024,999,46914,.13498E-3,.4267E-4,0
IRIDIUM 116,2017-083C,2026-05-17T12:24:15.395040,14.34218723,.0001992,86.3961,334.8300,80.7758,279.3663,0,U,43072,999,43977,.5563E-5,.35E-6,0
IRIDIUM 130,2017-083D,2026-05-17T13:19:03.118080,14.34218276,.0002224,86.3967,335.0865,82.0328,278.1120,0,U,43073,999,43972,.18417E-4,.71E-6,0
LKW-2,2017-084A,2026-05-17T12:56:36.595680,15.25903417,.0002412,97.1215,178.7732,43.0668,317.0759,0,U,43080,999,46701,.16488E-3,.4159E-4,0
SUPERVIEW-1 03,2018-002A,2026-05-17T11:18:08.116992,15.38246689,.0046227,97.3135,222.3803,291.8596,67.7736,0,U,43099,999,46364,.26592E-3,.10308E-3,0
CARTOSAT-2F,2018-004A,2026-05-17T04:27:59.407200,15.19205508,.0001657,97.4814,197.1190,46.0784,314.0587,0,U,43111,999,46262,.15333E-4,.255E-5,0
LKW-3,2018-006A,2026-05-17T13:03:21.980160,15.34609475,.0004089,97.6580,296.9425,69.3416,290.8265,0,U,43146,999,46401,.2295E-3,.7613E-4,0
ASNARO-2,2018-007A,2026-05-16T18:26:23.800992,15.22434727,.00017432,97.3979,144.1843,93.5281,266.6155,0,U,43152,999,46263,.35954559E-3,.8248E-4,0
JILIN-1 07,2018-008E,2026-05-17T12:11:48.581088,15.34175150,.0009129,97.1783,158.2652,156.1777,203.9891,0,U,43159,999,46029,.16725E-3,.5461E-4,0
JILIN-1 08,2018-008F,2026-05-17T11:45:08.016768,15.33286562,.0006494,97.1814,157.5934,165.8697,194.2728,0,U,43160,999,46024,.15585E-3,.4939E-4,0
LEMUR-2-KADI,2018-014E,2026-05-17T06:55:27.979392,15.87411746,.0004962,97.4479,66.8806,111.7111,248.4689,0,U,43184,999,45617,.11734E-2,.318143E-2,0
S-NET D,2018-014G,2026-05-17T07:38:01.139136,15.16355640,.0009842,97.5390,42.3055,119.3722,240.8495,0,U,43186,999,45408,.16473E-3,.3131E-4,0
S-NET B,2018-014H,2026-05-17T11:03:41.935392,15.16326732,.0010549,97.5393,42.4330,115.3904,244.8422,0,U,43187,999,45410,.16941E-3,.322E-4,0
